0 COSMOS 1275 DEB
1 12759U 81053DC  13281.45589984  .00000687  00000-0  46604-3 0  1815
2 12759 082.8611 080.7970 0050121 051.0016 001.6408 13.98216420633631
0 COSMOS 1275 DEB
1 12759U 81053DC  13282.45778766  .00000710  00000-0  48240-3 0  1820
2 12759 082.8612 080.0164 0050034 048.1229 004.6998 13.98219787633777
0 COSMOS 1275 DEB
1 12759U 81053DC  13283.74769913  .00000641  00000-0  43402-3 0  1836
2 12759 082.8614 079.0113 0049937 044.4112 017.5610 13.98222165633959
0 COSMOS 1275 DEB
1 12759U 81053DC  13286.46692921  .00000518  00000-0  34892-3 0  1850
2 12759 082.8619 076.8926 0049765 036.6009 025.0176 13.98226047634335
0 COSMOS 1275 DEB
1 12759U 81053DC  13287.83935413  .00000644  00000-0  43614-3 0  1861
2 12759 082.8623 075.8233 0049677 032.6261 093.2754 13.98227736634524
0 COSMOS 1275 DEB
1 12759U 81053DC  13288.84104807  .00000724  00000-0  49175-3 0  1876
2 12759 082.8625 075.0429 0049603 029.7158 095.4347 13.98228607634661
0 COSMOS 1275 DEB
1 12759U 81053DC  13289.84289846  .00000758  00000-0  51545-3 0  1886
2 12759 082.8627 074.2624 0049518 026.7918 098.3976 13.98229767634801
0 COSMOS 1275 DEB
1 12759U 81053DC  13291.13099734  .00000813  00000-0  55363-3 0  1891
2 12759 082.8628 073.2589 0049412 023.0501 102.2237 13.98230886634980
0 COSMOS 1275 DEB
1 12759U 81053DC  13292.13220115  .00000856  00000-0  58388-3 0  1900
2 12759 082.8629 072.4791 0049328 020.1118 101.9570 13.98231930635129
0 COSMOS 1275 DEB
1 12759U 81053DC  13293.40650509  .00000867  00000-0  59172-3 0  1910
2 12759 082.8629 071.4864 0049234 016.3905 036.3714 13.98234456635303
0 COSMOS 1275 DEB
1 12759U 81053DC  13294.40831435  .00000807  00000-0  55002-3 0  1923
2 12759 082.8629 070.7060 0049156 013.4586 039.1520 13.98236718635443
0 COSMOS 1275 DEB
1 12759U 81053DC  13295.41034752  .00000787  00000-0  53609-3 0  1931
2 12759 082.8629 069.9254 0049079 010.5091 043.0832 13.98238699635586
